OCEANSAT-2              
1 35931U 09051A   26168.48548924 -.00000138  00000+0 -68261-4 0  9993
2 35931  98.2324 155.3072 0015226 235.0500 124.9237 13.99664402879371
WORLDVIEW-2 (WV-2)      
1 35946U 09055A   26168.51172858  .00000080  00000+0  40994-4 0  9993
2 35946  98.4737 241.9568 0003728 206.8634 153.2361 14.37899474875693
SMOS                    
1 36036U 09059A   26168.46751118  .00000182  00000+0  72065-4 0  9991
2 36036  98.4424 355.7983 0001323  88.5180 271.6159 14.39772708873490
YAOGAN-7                
1 36110U 09069A   26168.29188648  .00000394  00000+0  61664-4 0  9996
2 36110  98.0071  54.1583 0025567  41.4114 318.9029 14.78009921889642
TANDEM-X                
1 36605U 10030A   26166.54501978  .00000388  00000+0  21672-4 0  9994
2 36605  97.4452 174.2763 0001884  86.9240 273.2210 15.19149123886390
CARTOSAT-2B             
1 36795U 10035A   26168.54269634  .00000371  00000+0  57680-4 0  9991
2 36795  97.9950 219.0903 0011194 182.5920 177.5234 14.78661514859901
YAOGAN-10               
1 36834U 10038A   26168.56098477  .00001359  00000+0  16432-3 0  9991
2 36834  97.8968 191.9620 0001653  85.7081  16.6835 14.85349561857268
COSMO-SKYMED 4          
1 37216U 10060A   26168.51126627 -.00000150  00000+0 -12318-4 0  9995
2 37216  97.8879 352.1057 0001391  81.1478 278.9893 14.82152065844618
RESOURCESAT-2           
1 37387U 11015A   26168.44092171  .00000088  00000+0  60415-4 0  9992
2 37387  98.7644 235.8810 0010211 254.6981 105.3068 14.21606587786212
HAIYANG-2A              
1 37781U 11043A   26168.54797539 -.00000022  00000+0  22487-4 0  9998
2 37781  99.3405 171.2166 0005918  91.2794 268.9033 13.74349473746707
RASAT                   
1 37791U 11044D   26168.53056741  .00000490  00000+0  93535-4 0  9992
2 37791  98.0583 259.9220 0020211 187.6311 299.0743 14.68167061793232
SRMSAT                  
1 37841U 11058D   26168.08915448  .00000356  00000+0  49079-4 0  9996
2 37841  19.9723  60.0600 0011791 202.5356 269.2197 14.11575544757800
PLEIADES 1A             
1 38012U 11076F   26168.54694865  .00000437  00000+0  10385-3 0  9992
2 38012  98.1981 243.6452 0001676  94.6723  18.0076 14.58571931772045
ZIYUAN 1-02C (ZY 1-02C) 
1 38038U 11079A   26168.50506090  .00000501  00000+0  17909-3 0  9992
2 38038  98.4074 235.8070 0005462 315.8371 168.4650 14.38215616759251
ARIRANG-3 (KOMPSAT-3)   
1 38338U 12025B   26168.51172469  .00000334  00000+0  75546-4 0  9993
2 38338  98.1171 125.9661 0006686 108.5406 251.6522 14.62206371751394
EXACTVIEW-1 (ADS-1B)    
1 38709U 12039C   26168.31102359  .00000087  00000+0  57181-4 0  9999
2 38709  98.9778 285.7040 0011176 166.0268 194.1222 14.24984566722728
SPOT 6                  
1 38755U 12047A   26168.47223366  .00000369  00000+0  89260-4 0  9994
2 38755  98.2122 235.7779 0001522  92.3678 267.7696 14.58563628733092
PLEIADES 1B             
1 39019U 12068A   26168.49115272  .00000242  00000+0  61986-4 0  9994
2 39019  98.1952 243.5386 0001676  91.6241 268.5151 14.58560851720899
GOKTURK 2               
1 39030U 12073A   26168.48767227  .00000007  00000+0  79851-5 0  9995
2 39030  97.6811   5.9036 0001586  55.7469 304.3891 14.75542035724555
LANDSAT 8               
1 39084U 13008A   26168.50542645  .00000264  00000+0  68786-4 0  9990
2 39084  98.2302 238.6369 0001360  93.8392 266.2962 14.57094731697940
SARAL                   
1 39086U 13009A   26168.52972718  .00000065  00000+0  39791-4 0  9996
2 39086  98.5556 355.0926 0000699 306.5769  53.5351 14.32856041695653
GAOFEN-1                
1 39150U 13018A   26168.53737687  .00000361  00000+0  58939-4 0  9997
2 39150  97.9098 240.5982 0015674 265.2893  94.6527 14.76536862708297
VNREDSAT 1              
1 39160U 13021B   26168.49885824  .00000290  00000+0  62809-4 0  9996
2 39160  97.9079 221.9033 0001730  88.8158 271.3244 14.64856797700334
ARIRANG-5 (KOMPSAT-5)   
1 39227U 13042A   26168.49864971  .00000571  00000+0  45099-4 0  9997
2 39227  97.6200 355.1946 0005393 119.4205 240.7560 15.04492925703908
SKYSAT-A                
1 39418U 13066C   26168.52187779  .00002018  00000+0  11750-3 0  9997
2 39418  97.3812 217.9085 0020069 316.3079  43.6563 15.12977548688531
DUBAISAT-2              
1 39419U 13066D   26168.53461022  .00003096  00000+0  19313-3 0  9995
2 39419  97.4553 158.6702 0012347  39.1774 321.0347 15.10182291686446
GPM-CORE                
1 39574U 14009C   26168.46842003  .00009277  00000+0  20323-3 0  9999
2 39574  64.9726 307.1845 0011838 251.5776 108.4077 15.44576456697855
SENTINEL-1A             
1 39634U 14016A   26168.50463728 -.00000768  00000+0 -15314-3 0  9994
2 39634  98.1772 176.0329 0001440  78.1324 282.0037 14.59199106650067
KAZEOSAT 1              
1 39731U 14024A   26168.50738583  .00000370  00000+0  12573-3 0  9996
2 39731  98.3209 240.9467 0001376  74.0190 286.1152 14.42081043638601
ALOS-2                  
1 39766U 14029A   26168.54496847  .00000906  00000+0  12813-3 0  9999
2 39766  97.9226 265.7030 0001638  90.8065 269.3335 14.79469964651638
KAZEOSAT 2              
1 40010U 14033A   26168.49947907  .00000352  00000+0  46649-4 0  9990
2 40010  97.5398   8.0945 0007841 328.2203  31.8539 14.85469056649000
