OBJECT_NAME,OBJECT_ID,EPOCH,MEAN_MOTION,ECCENTRICITY,INCLINATION,RA_OF_ASC_NODE,ARG_OF_PERICENTER,MEAN_ANOMALY,EPHEMERIS_TYPE,CLASSIFICATION_TYPE,NORAD_CAT_ID,ELEMENT_SET_NO,REV_AT_EPOCH,BSTAR,MEAN_MOTION_DOT,MEAN_MOTION_DDOT
OCEANSAT-2,2009-051A,2026-06-17T11:39:06.270336,13.99664402,.0015226,98.2324,155.3072,235.0500,124.9237,0,U,35931,999,87937,-.68261E-4,-.138E-5,0
WORLDVIEW-2 (WV-2),2009-055A,2026-06-17T12:16:53.349312,14.37899474,.0003728,98.4737,241.9568,206.8634,153.2361,0,U,35946,999,87569,.40994E-4,.8E-6,0
SMOS,2009-059A,2026-06-17T11:13:12.965952,14.39772708,.0001323,98.4424,355.7983,88.5180,271.6159,0,U,36036,999,87349,.72065E-4,.182E-5,0
YAOGAN-7,2009-069A,2026-06-17T07:00:18.991872,14.78009921,.0025567,98.0071,54.1583,41.4114,318.9029,0,U,36110,999,88964,.61664E-4,.394E-5,0
TANDEM-X,2010-030A,2026-06-15T13:04:49.708992,15.19149123,.0001884,97.4452,174.2763,86.9240,273.2210,0,U,36605,999,88639,.21672042E-4,.388E-5,0
CARTOSAT-2B,2010-035A,2026-06-17T13:01:28.963776,14.78661514,.0011194,97.9950,219.0903,182.5920,177.5234,0,U,36795,999,85990,.5768E-4,.371E-5,0
YAOGAN-10,2010-038A,2026-06-17T13:27:49.084128,14.85349561,.0001653,97.8968,191.9620,85.7081,16.6835,0,U,36834,999,85726,.16432E-3,.1359E-4,0
COSMO-SKYMED 4,2010-060A,2026-06-17T12:16:13.405728,14.82152065,.0001391,97.8879,352.1057,81.1478,278.9893,0,U,37216,999,84461,-.12318E-4,-.15E-5,0
RESOURCESAT-2,2011-015A,2026-06-17T10:34:55.635744,14.21606587,.0010211,98.7644,235.8810,254.6981,105.3068,0,U,37387,999,78621,.60415E-4,.88E-6,0
HAIYANG-2A,2011-043A,2026-06-17T13:09:05.073696,13.74349473,.0005918,99.3405,171.2166,91.2794,268.9033,0,U,37781,999,74670,.22487E-4,-.22E-6,0
RASAT,2011-044D,2026-06-17T12:44:01.024224,14.68167061,.0020211,98.0583,259.9220,187.6311,299.0743,0,U,37791,999,79323,.93535E-4,.49E-5,0
SRMSAT,2011-058D,2026-06-17T02:08:22.947072,14.11575544,.0011791,19.9723,60.0600,202.5356,269.2197,0,U,37841,999,75780,.49079E-4,.356E-5,0
PLEIADES 1A,2011-076F,2026-06-17T13:07:36.363360,14.58571931,.0001676,98.1981,243.6452,94.6723,18.0076,0,U,38012,999,77204,.10385E-3,.437E-5,0
ZIYUAN 1-02C (ZY 1-02C),2011-079A,2026-06-17T12:07:17.261760,14.38215616,.0005462,98.4074,235.8070,315.8371,168.4650,0,U,38038,999,75925,.17909E-3,.501E-5,0
ARIRANG-3 (KOMPSAT-3),2012-025B,2026-06-17T12:16:53.013216,14.62206371,.0006686,98.1171,125.9661,108.5406,251.6522,0,U,38338,999,75139,.75546E-4,.334E-5,0
EXACTVIEW-1 (ADS-1B),2012-039C,2026-06-17T07:27:52.438176,14.24984566,.0011176,98.9778,285.7040,166.0268,194.1222,0,U,38709,999,72272,.57181E-4,.87E-6,0
SPOT 6,2012-047A,2026-06-17T11:20:00.988224,14.58563628,.0001522,98.2122,235.7779,92.3678,267.7696,0,U,38755,999,73309,.8926E-4,.369E-5,0
PLEIADES 1B,2012-068A,2026-06-17T11:47:15.595008,14.58560851,.0001676,98.1952,243.5386,91.6241,268.5151,0,U,39019,999,72089,.61986E-4,.242E-5,0
GOKTURK 2,2012-073A,2026-06-17T11:42:14.884128,14.75542035,.0001586,97.6811,5.9036,55.7469,304.3891,0,U,39030,999,72455,.79851E-5,.7E-7,0
LANDSAT 8,2013-008A,2026-06-17T12:07:48.845280,14.57094731,.000136,98.2302,238.6369,93.8392,266.2962,0,U,39084,999,69794,.68786E-4,.264E-5,0
SARAL,2013-009A,2026-06-17T12:42:48.428352,14.32856041,.0000699,98.5556,355.0926,306.5769,53.5351,0,U,39086,999,69565,.39791E-4,.65E-6,0
GAOFEN-1,2013-018A,2026-06-17T12:53:49.361568,14.76536862,.0015674,97.9098,240.5982,265.2893,94.6527,0,U,39150,999,70829,.58939E-4,.361E-5,0
VNREDSAT 1,2013-021B,2026-06-17T11:58:21.351936,14.64856797,.000173,97.9079,221.9033,88.8158,271.3244,0,U,39160,999,70033,.62809E-4,.29E-5,0
ARIRANG-5 (KOMPSAT-5),2013-042A,2026-06-17T11:58:03.334944,15.04492925,.0005393,97.6200,355.1946,119.4205,240.7560,0,U,39227,999,70390,.45099E-4,.571E-5,0
SKYSAT-A,2013-066C,2026-06-17T12:31:30.241056,15.12977548,.0020069,97.3812,217.9085,316.3079,43.6563,0,U,39418,999,68853,.1175E-3,.2018E-4,0
DUBAISAT-2,2013-066D,2026-06-17T12:49:50.323008,15.10182291,.0012347,97.4553,158.6702,39.1774,321.0347,0,U,39419,999,68644,.19313E-3,.3096E-4,0
GPM-CORE,2014-009C,2026-06-17T11:14:31.490592,15.44576456,.0011838,64.9726,307.1845,251.5776,108.4077,0,U,39574,999,69785,.20323E-3,.9277E-4,0
SENTINEL-1A,2014-016A,2026-06-17T12:06:40.660992,14.59199106,.000144,98.1772,176.0329,78.1324,282.0037,0,U,39634,999,65006,-.15314E-3,-.768E-5,0
KAZEOSAT 1,2014-024A,2026-06-17T12:10:38.135712,14.42081043,.0001376,98.3209,240.9467,74.0190,286.1152,0,U,39731,999,63860,.12573E-3,.37E-5,0
ALOS-2,2014-029A,2026-06-17T13:04:45.275808,14.79469964,.0001638,97.9226,265.7030,90.8065,269.3335,0,U,39766,999,65163,.12813E-3,.906E-5,0
KAZEOSAT 2,2014-033A,2026-06-17T11:59:14.991648,14.85469056,.0007841,97.5398,8.0945,328.2203,31.8539,0,U,40010,999,64900,.46649E-4,.352E-5,0
